ID_Reviewer,phone,commentaires,title,city,address,sentiment,totalScore
1,,prestations lourdes,CIH Bank,Tanger,"Q577+M3P, Tangier, Maroc",4,2.4
2,,"C'est moi en Keshi qui me harc√®le √† chaque fois que je vais dans cette agence
Parce que c'est le plus proche de mon lieu de r√©sidence. J'en ai parl√© √† mon mari, et nous en avons inform√© la police, car cet usager ne fait pas la diff√©rence entre une femme mari√©e ou une femme c√©libataire. L'important est qu'il laisse passer sa col√®re. en dehors.",CIH Bank,Tanger,"Q577+M3P, Tangier, Maroc",5,2.4
3,,"Une banque pleine de bisir et de hazak
Ce chien moderne doit √™tre expuls√©",CIH Bank,Tanger,"Q577+M3P, Tangier, Maroc",1,2.4
4,,"Je vais vous montrer un autre service dans un march√© ou dans une salle de bain
Ne pas rejoindre, ne pas traiter comme une for√™t",CIH Bank,Tanger,"Q577+M3P, Tangier, Maroc",1,2.4
5,,"Kayn a lav√© le kidar Tema 3onsori

khes modir iljri 3lih 9ebel ma ghadi tew9a3 chi mosiba tema",CIH Bank,Tanger,"Q577+M3P, Tangier, Maroc",3,2.4
6,+212 5393-19310,Sous-standard,CIH Bank,Tanger,"Residence Golden Beachÿå Av. Moulay Rachidÿå Rue du Val Fleuri, Tangier 90060, Maroc",3,2.1
7,+212 5393-19310,000000000000000,CIH Bank,Tanger,"Residence Golden Beachÿå Av. Moulay Rachidÿå Rue du Val Fleuri, Tangier 90060, Maroc",3,2.1
8,+212 5393-19310,pas mal,CIH Bank,Tanger,"Residence Golden Beachÿå Av. Moulay Rachidÿå Rue du Val Fleuri, Tangier 90060, Maroc",3,2.1
9,+212 5393-19310,Absence de responsabilit√©,CIH Bank,Tanger,"Residence Golden Beachÿå Av. Moulay Rachidÿå Rue du Val Fleuri, Tangier 90060, Maroc",1,2.1
10,+212 5393-19310,Sce nuuuuuuuuuuuuuuuuuuuuuuuuul,CIH Bank,Tanger,"Residence Golden Beachÿå Av. Moulay Rachidÿå Rue du Val Fleuri, Tangier 90060, Maroc",3,2.1
11,+212 5393-19310,Mauvais choix pour tout service dans cette loco banque avec assistance lazy... Toute la journ√©e pour un transfert d'argent,CIH Bank,Tanger,"Residence Golden Beachÿå Av. Moulay Rachidÿå Rue du Val Fleuri, Tangier 90060, Maroc",1,2.1
12,+212 5393-19310,"C'est un jeune homme qui est au P√©rou. Quelqu'un m'ouvre la porte pour ouvrir le compte √† moins qu'il ne soit un t√©moin oculaire du service. C'est le plus retrait√©. Je suis all√© rendre le code, et il m'a dit d'appeler le 4747, et j'ai d√©j√† vu la r√©ponse √† l'unit√© des filles sans connexion. Le code n'est pas une application, je veux changer le num√©ro, mais je n'aime pas √ßa, pour une situation plus difficile, je suis √† la retraite, je suis d√©sol√©, je vais vous donner la pauvre fille. Avec des gens en √©tat de s'occuper du compte du chef du directeur de la banque, et chaque fois que je m'y rends, je vois comment traiter les gens qui ont un moyen",CIH Bank,Tanger,"Residence Golden Beachÿå Av. Moulay Rachidÿå Rue du Val Fleuri, Tangier 90060, Maroc",2,2.1
13,+212 5393-19310,"C'est moi en Keshi qui me harc√®le √† chaque fois que je vais dans cette agence
Parce que c'est le lieu de r√©sidence le plus proche selon moi, j'en ai parl√© √† mon mari, et nous avons pr√©venu la police, et nous en ferons un exemple pour les autres, car cet usager ne fait pas la diff√©rence entre une femme mari√©e et une femme c√©libataire.",CIH Bank,Tanger,"Residence Golden Beachÿå Av. Moulay Rachidÿå Rue du Val Fleuri, Tangier 90060, Maroc",5,2.1
14,+212 5393-19310,"Je vais vous montrer un autre service dans un march√© ou dans une salle de bain
Ne pas rejoindre, ne pas traiter comme une for√™t",CIH Bank,Tanger,"Residence Golden Beachÿå Av. Moulay Rachidÿå Rue du Val Fleuri, Tangier 90060, Maroc",1,2.1
15,+212 5393-19310,"Demain, je vais m'attendre √† une catastrophe dans l'agence, √† cause de ce chien, qui m'a gard√© dans ma quiche
Sans parler de sa pr√©f√©rence pour les femmes, il les harc√®le en public
C'est un exemple regrettable des fils d'adult√®re qui acc√®dent au travail alors qu'ils n'y sont pas √©ligibles",CIH Bank,Tanger,"Residence Golden Beachÿå Av. Moulay Rachidÿå Rue du Val Fleuri, Tangier 90060, Maroc",2,2.1
16,+212 5393-19310,Je n'ai jamais vu un broyeur de ma vie qui m'a d√©truit √† Kishi,CIH Bank,Tanger,"Residence Golden Beachÿå Av. Moulay Rachidÿå Rue du Val Fleuri, Tangier 90060, Maroc",5,2.1
17,+212 5393-19310,"Une banque pleine de bisir et de hazak
Ce chien moderne doit √™tre expuls√©",CIH Bank,Tanger,"Residence Golden Beachÿå Av. Moulay Rachidÿå Rue du Val Fleuri, Tangier 90060, Maroc",1,2.1
18,+212 5393-19310,Tr√®s mauvais service,CIH Bank,Tanger,"Residence Golden Beachÿå Av. Moulay Rachidÿå Rue du Val Fleuri, Tangier 90060, Maroc",1,2.1
19,+212 5393-19310,Je vous d√©conseille d'aller dans cette banque. Je d√©teste le service.,CIH Bank,Tanger,"Residence Golden Beachÿå Av. Moulay Rachidÿå Rue du Val Fleuri, Tangier 90060, Maroc",1,2.1
20,+212 5393-19310,Tr√®s mauvais service le pire service que vous puissiez avoir,CIH Bank,Tanger,"Residence Golden Beachÿå Av. Moulay Rachidÿå Rue du Val Fleuri, Tangier 90060, Maroc",1,2.1
21,+212 5393-19310,Tr√®s tr√®s mauvais service. J'ai attendu 1h30 pour seulement 5 personnes !!!!,CIH Bank,Tanger,"Residence Golden Beachÿå Av. Moulay Rachidÿå Rue du Val Fleuri, Tangier 90060, Maroc",1,2.1
22,+212 5393-49950,Le service est une blague toujours en pause et le gars de la s√©curit√© qui parle au client est une agence de blagues,CIH Bank,Tanger,"COMPLEXE RADIA LOT 8, Ave Mohammed VI, Tangier, Maroc",1,2.1
23,+212 5393-49950,employ√© 1 serviteurs,CIH Bank,Tanger,"COMPLEXE RADIA LOT 8, Ave Mohammed VI, Tangier, Maroc",3,2.1
24,+212 5393-49950,leur service est une blague.,CIH Bank,Tanger,"COMPLEXE RADIA LOT 8, Ave Mohammed VI, Tangier, Maroc",1,2.1
25,+212 5393-49950,Le premier guichet automatique √† Tanger o√π le paiement a fonctionn√© avec ma carte VISA.,CIH Bank,Tanger,"COMPLEXE RADIA LOT 8, Ave Mohammed VI, Tangier, Maroc",5,2.1
26,+212 5393-98400,Bien,CIH Bank,Tanger,"P4PC+C9H, Tanger, Maroc",4,1.8
27,+212 5393-98400,"Le comptable parle dans un style de march√© totalement inappropri√© pour un comptable de banque, et il vous donnera son propre argent, la pire banque avec laquelle vous puissiez traiter.",CIH Bank,Tanger,"P4PC+C9H, Tanger, Maroc",1,1.8
28,+212 5393-98400,"Achalandage fr√©quent en fin de semaine, surtout le vendredi, surpeuplement....
Il est situ√© du c√¥t√© Boukhalef de la route principale....
Achalandage fr√©quent en fin de semaine, surtout le vendredi, surpeuplement....
Il est situ√© du c√¥t√© de Bukhalef de la route principale.....",CIH Bank,Tanger,"P4PC+C9H, Tanger, Maroc",2,1.8
29,+212 5393-98400,Tr√®s encombr√© + Le service client est le pire,CIH Bank,Tanger,"P4PC+C9H, Tanger, Maroc",1,1.8
30,+212 5393-98400,Mauvais serviceü§¨,CIH Bank,Tanger,"P4PC+C9H, Tanger, Maroc",1,1.8
31,+212 5393-98400,"La banque la plus efficace avec laquelle vous pouvez traiter, non, vous alliez r√©soudre Fahad Lagouns, voyez que vous n'avez pas de dignit√©, ne traitez pas avec Mezyan, aucun service, Mezyan Dima Amer, vous restez toute la journ√©e, Taideo, et ils te r√©pondent, tu d√©testes le jour o√π tu y es n√©. Reste avec eux, et comme conseil √† quiconque lit Hadshi Gha s'est √©chapp√© sauf toi, qui t'est cher.",CIH Bank,Tanger,"P4PC+C9H, Tanger, Maroc",5,1.8
32,+212 5393-98400,"Les pires services, agence bond√©e, je passe 30_1 heure √† attendre / chaque fois qu'ils disent que le syst√®me est en panne.",CIH Bank,Tanger,"P4PC+C9H, Tanger, Maroc",1,1.8
33,+212 5393-98400,"La pire agence du monde .. juste le temps d'attente, je vous conseille de choisir autre chose",CIH Bank,Tanger,"P4PC+C9H, Tanger, Maroc",1,1.8
34,+212 5393-98400,Le pire service de tous les temps,CIH Bank,Tanger,"P4PC+C9H, Tanger, Maroc",1,1.8
35,+212 5393-98400,Services 0/0√ó0,CIH Bank,Tanger,"P4PC+C9H, Tanger, Maroc",1,1.8
36,+212 5393-98400,"Si je pouvais donner 0 √©toiles, je serais le pire de tous les temps",CIH Bank,Tanger,"P4PC+C9H, Tanger, Maroc",1,1.8
37,+212 5393-98400,"Le pire service que j'aie jamais vu, gagnez du temps et allez dans un autre endroit, kerhoni f CIH.",CIH Bank,Tanger,"P4PC+C9H, Tanger, Maroc",1,1.8
38,+212 5393-98400,"Le directeur de l'agence ne traite pas et est indulgent avec les clients,",CIH Bank,Tanger,"P4PC+C9H, Tanger, Maroc",1,1.8
39,+212 5393-98400,La pire agence avec qui traiter ,CIH Bank,Tanger,"P4PC+C9H, Tanger, Maroc",1,1.8
40,+212 5393-98400,Vous ne l'avez pas fait une seule fois..,CIH Bank,Tanger,"P4PC+C9H, Tanger, Maroc",1,1.8
41,+212 5393-98400,pire agence,CIH Bank,Tanger,"P4PC+C9H, Tanger, Maroc",1,1.8
42,+212 5393-98400,Toujours un syst√®me de guichet automatique en panne n'accepte pas les cartes de la m√™me banque ou vide d'argent,CIH Bank,Tanger,"P4PC+C9H, Tanger, Maroc",1,1.8
43,+212 5393-98400,Mauvais traitements,CIH Bank,Tanger,"P4PC+C9H, Tanger, Maroc",1,1.8
44,+212 5393-98400,Le pire service,CIH Bank,Tanger,"P4PC+C9H, Tanger, Maroc",1,1.8
45,+212 5393-98400,Stupide,CIH Bank,Tanger,"P4PC+C9H, Tanger, Maroc",1,1.8
46,+212 5393-19110,Tr√®s mauvais services.,CIH Bank,Tanger,"Av. Arabie Saoudite Av Med Vi,quar.ahlen Bloc A1, Resi.habiba, Tanger 90060, Maroc",1,2.1
47,+212 5393-19110,"Traiter en dessous de la norme avec tous les clients
 Avec arrogance du gars de la s√©curit√© au manager",CIH Bank,Tanger,"Av. Arabie Saoudite Av Med Vi,quar.ahlen Bloc A1, Resi.habiba, Tanger 90060, Maroc",5,2.1
48,+212 5393-19110,Je travaille √† l'endroit o√π se trouve la banque cih,CIH Bank,Tanger,"Av. Arabie Saoudite Av Med Vi,quar.ahlen Bloc A1, Resi.habiba, Tanger 90060, Maroc",4,2.1
49,+212 5393-19110,"Je me suis r√©veill√© aujourd'hui. J'ai parcouru un long chemin pour entendre que nous avons du travail aujourd'hui, sachant que dans le navigateur Google, ils disent qu'ils travaillent aujourd'hui. Un de vos pires enfants qui se r√©veille avec toute activit√© et un employ√© de banque vient vous d√©ranger toute la journ√©e, m√™me une √©toile que vous ne m√©ritez pas. ü§¢ü§Æ",CIH Bank,Tanger,"Av. Arabie Saoudite Av Med Vi,quar.ahlen Bloc A1, Resi.habiba, Tanger 90060, Maroc",4,2.1
50,+212 5393-19110,Le probl√®me de la surpopulation est tr√®s √©lev√©,CIH Bank,Tanger,"Av. Arabie Saoudite Av Med Vi,quar.ahlen Bloc A1, Resi.habiba, Tanger 90060, Maroc",2,2.1
51,+212 5393-19110,Mauvais service,CIH Bank,Tanger,"Av. Arabie Saoudite Av Med Vi,quar.ahlen Bloc A1, Resi.habiba, Tanger 90060, Maroc",1,2.1
52,+212 5393-19110,"Je me suis promen√© le matin pour ouvrir un compte, ils m'ont dit qu'il n'y avait pas de connexion ",CIH Bank,Tanger,"Av. Arabie Saoudite Av Med Vi,quar.ahlen Bloc A1, Resi.habiba, Tanger 90060, Maroc",2,2.1
53,+212 5393-19110,Ta3amol dyal modira tma z√©ro. La3ala9a. Machi professionnel FMRA,CIH Bank,Tanger,"Av. Arabie Saoudite Av Med Vi,quar.ahlen Bloc A1, Resi.habiba, Tanger 90060, Maroc",1,2.1
54,+212 5393-19110,"J'ai ador√© le labo et le labo, que vous dites, je n'ai pas d√©fi√© devant vous, je n'ai assist√© que la veille de l'A√Ød, les gens ont pris le relais et rendu les employ√©s agressifs, mais quand je suis venu le vendredi 14 mai, c'√©tait fonctionnait bien et le temps n'√©tait pas perdu, bon service dans un bon moment",CIH Bank,Tanger,"Av. Arabie Saoudite Av Med Vi,quar.ahlen Bloc A1, Resi.habiba, Tanger 90060, Maroc",5,2.1
55,+212 5393-19110,Mauvais service un seul employ√© √† l'int√©rieur,CIH Bank,Tanger,"Av. Arabie Saoudite Av Med Vi,quar.ahlen Bloc A1, Resi.habiba, Tanger 90060, Maroc",1,2.1
56,+212 5393-19110,"Le syst√®me Dima ne l'a pas servi
Gestionnaire arrogant",CIH Bank,Tanger,"Av. Arabie Saoudite Av Med Vi,quar.ahlen Bloc A1, Resi.habiba, Tanger 90060, Maroc",1,2.1
57,+212 5393-19110,Bien,CIH Bank,Tanger,"Av. Arabie Saoudite Av Med Vi,quar.ahlen Bloc A1, Resi.habiba, Tanger 90060, Maroc",4,2.1
58,+212 5393-19110,"tr√®s mauvais service client, toujours bond√© et les gens √† l'int√©rieur sont si impolis",CIH Bank,Tanger,"Av. Arabie Saoudite Av Med Vi,quar.ahlen Bloc A1, Resi.habiba, Tanger 90060, Maroc",1,2.1
59,+212 5393-19110,Bon service,CIH Bank,Tanger,"Av. Arabie Saoudite Av Med Vi,quar.ahlen Bloc A1, Resi.habiba, Tanger 90060, Maroc",4,2.1
60,+212 5393-19110,Entretien 0,CIH Bank,Tanger,"Av. Arabie Saoudite Av Med Vi,quar.ahlen Bloc A1, Resi.habiba, Tanger 90060, Maroc",1,2.1
61,+212 5393-19110,Service m√©diocre et grossier. Evitez cette agence,CIH Bank,Tanger,"Av. Arabie Saoudite Av Med Vi,quar.ahlen Bloc A1, Resi.habiba, Tanger 90060, Maroc",1,2.1
62,+212 5393-19110,"Le traitement et les services sont de qualit√© inf√©rieure aujourd'hui. Je suis all√© dans cette agence, d'apr√®s ce qu'ils publient sur Internet. Le samedi, ils travaillent jusqu'√† quatre heures du soir. Quand j'y suis all√©, j'ai trouv√© quelqu'un qui r√©pondait de mani√®re barbare, n'utilisant pas eux aujourd'hui, et me fermant la porte au nez, que Dieu se venge de vous.",CIH Bank,Tanger,"Av. Arabie Saoudite Av Med Vi,quar.ahlen Bloc A1, Resi.habiba, Tanger 90060, Maroc",2,2.1
63,+212 5393-19110,"Le service est disponible sans faute n7el un compte 9 altli we7da khadam tema db lpc meblocke, la 2eme fois rje3t l3endha apres 2h 9altli lconexion makaynach, 3ilman anna kayen chiwe7din sawbo lcompte dyalhom 3endha wana kanchof. wa7d reception o wa7d service la3ala9a... O3ad ze3ma hadi le3 wacher ollah makay7echmo ossyassa masl7ach mea had les gents...",CIH Bank,Tanger,"Av. Arabie Saoudite Av Med Vi,quar.ahlen Bloc A1, Resi.habiba, Tanger 90060, Maroc",1,2.1
64,+212 5393-31545,bouch√©,CIH (Credit Immobilier Et Hotelier),Tanger,"17 Av. Belgique, Tanger 90060, Maroc",1,1.9
65,+212 5393-31545,"Il y a beaucoup de monde et trop de temps d'attente pour des t√¢ches simples, le seul inconv√©nient de cette banque, en particulier cet emplacement.",CIH (Credit Immobilier Et Hotelier),Tanger,"17 Av. Belgique, Tanger 90060, Maroc",3,1.9
66,+212 5393-31545,Le pire service de costumes de tout l'univers,CIH (Credit Immobilier Et Hotelier),Tanger,"17 Av. Belgique, Tanger 90060, Maroc",1,1.9
67,+212 5393-31545,"Le service client est tr√®s, tr√®s, tr√®s mauvais, et ils quittent les clients et s'occupent d'autres choses et d'appels t√©l√©phoniques personnels, m√™me le travail lui-m√™me qu'ils ne comprennent pas J'ai re√ßu un message de la banque me disant d'aller mettre √† jour mes donn√©es avant la fin du mois, et quand je suis all√© attendre plus de deux heures. Ils m'ont dit que nous n'avions aucune information sur cette proc√©dure !!!!!!!!
Je ne recommande pas du tout cette banque",CIH (Credit Immobilier Et Hotelier),Tanger,"17 Av. Belgique, Tanger 90060, Maroc",1,1.9
68,+212 5393-31545,L'un des pires de tous les temps !! Mauvais service client et je regrette de l'avoir choisi en premier lieu,CIH (Credit Immobilier Et Hotelier),Tanger,"17 Av. Belgique, Tanger 90060, Maroc",1,1.9
69,+212 5393-31545,Le guichet automatique le plus fr√©quent√© de la ville √Ä √©viter √† tout prix,CIH (Credit Immobilier Et Hotelier),Tanger,"17 Av. Belgique, Tanger 90060, Maroc",1,1.9
70,+212 5393-31545,Service CIH Banque = 0,CIH (Credit Immobilier Et Hotelier),Tanger,"17 Av. Belgique, Tanger 90060, Maroc",1,1.9
71,+212 5393-31545,"Je ne recommande pas de faire affaire avec cette banque, le service client est tr√®s m√©diocre et il y a toujours des probl√®mes...",CIH (Credit Immobilier Et Hotelier),Tanger,"17 Av. Belgique, Tanger 90060, Maroc",1,1.9
72,+212 5393-31545,"Le syst√®me est toujours en panne , et certains agents font des choses inappropri√©es √† l'int√©rieur de l'agence. De plus, ils ferment avant l'heure de fermeture mentionn√©e.",CIH (Credit Immobilier Et Hotelier),Tanger,"17 Av. Belgique, Tanger 90060, Maroc",1,1.9
73,+212 5393-31545,Ou,CIH (Credit Immobilier Et Hotelier),Tanger,"17 Av. Belgique, Tanger 90060, Maroc",3,1.9
74,+212 5393-31545,Ils mentionnent la fermeture √† 16h et la fermeture √† 15h30,CIH (Credit Immobilier Et Hotelier),Tanger,"17 Av. Belgique, Tanger 90060, Maroc",1,1.9
75,+212 5393-31545,"La CIH Bank est l'une des plus grandes banques de Tanger sp√©cialis√©e dans les pr√™ts hypoth√©caires et de r√©novation de villas et d'appartements.

Une fois, j'ai essay√© d'obtenir de l'argent (Dirhams) au guichet automatique ici, mais cela n'a pas fonctionn√©, j'ai donc d√ª me rendre dans une autre banque pour obtenir de l'argent.",CIH (Credit Immobilier Et Hotelier),Tanger,"17 Av. Belgique, Tanger 90060, Maroc",5,1.9
76,+212 5393-79550,Le syst√®me est trop lent,CIH Bank,Tanger,"49 Av. Anfa, Tanger 90060, Maroc",2,2
77,+212 5393-79550,"Salut, je suis mexicain et je ne connais pas la banque, mais comme tout le monde lui a donn√© une √©toile, moi aussi",CIH Bank,Tanger,"49 Av. Anfa, Tanger 90060, Maroc",1,2
78,+212 5393-79550,"+ connexion dima 3andom makhadamashi
+ 3omrom t√©l√©phone kijawbo 3la",CIH Bank,Tanger,"49 Av. Anfa, Tanger 90060, Maroc",5,2
79,+212 5393-79550,"Agence Akfis, Fatanga est Hadi, le traitement et le service sont sans importance. A cause d'elle, j'ai pay√© le compte de cette banque.",CIH Bank,Tanger,"49 Av. Anfa, Tanger 90060, Maroc",1,2
80,+212 5393-79550,"Service Akfas. Khsk tmxi w ydk f 9albk 3andk tjbar serveur makhasar. Mo3amal bla mathdar eliha, rah akfas haja khossosan db wahid bnt khadama f caissier. Mo3amala khayba niha2iyan",CIH Bank,Tanger,"49 Av. Anfa, Tanger 90060, Maroc",1,2
81,+212 5393-79550,"service 0 , mabghach yft7li compte ,, gali jib carte d etudiant wakha hya makaynach fl9anoun",CIH Bank,Tanger,"49 Av. Anfa, Tanger 90060, Maroc",1,2
82,+212 5393-41127,Syst√®me makhadamx. Hadra toujours Kat3awed,CIH Bank,Tanger,"Bd Ibntachfine, Rue Jamal Eddine Al Afghani, Tanger 90060, Maroc",1,1.9
83,+212 5393-41127, Pourquoi la caissi√®re ne fonctionne-t-elle pas ?,CIH Bank,Tanger,"Bd Ibntachfine, Rue Jamal Eddine Al Afghani, Tanger 90060, Maroc",1,1.9
84,+212 5393-41127,"J'ai eu une mauvaise exp√©rience avec un agent du service client de CIH Bank. L'agent √©tait extr√™mement grossier et d√©daigneux, montrant un manque total de respect pour moi en tant que client. Leur comportement √©tait inacceptable et m'a donn√© l'impression que mes pr√©occupations et mes probl√®mes n'√©taient pas importants pour eux. J'ai √©t√© extr√™mement d√©√ßu du niveau de service client fourni par cette personne et je ne recommanderais CIH Bank √† personne en raison de son mauvais traitement. Dans l'ensemble, ce fut une tr√®s mauvaise exp√©rience avec le comportement de l'agent.",CIH Bank,Tanger,"Bd Ibntachfine, Rue Jamal Eddine Al Afghani, Tanger 90060, Maroc",1,1.9
85,+212 5393-41127,"Les gens qui sont des domestiques qui ont √©t√© malades ne sont pas soign√©s, et leurs lois sont les leurs, et ils n'aiment pas le directeur au cul...
La d√©cence bancaire avec cette taille au service des gens n'a rien √† voir..
L'important est, excusez-moi
",CIH Bank,Tanger,"Bd Ibntachfine, Rue Jamal Eddine Al Afghani, Tanger 90060, Maroc",2,1.9
86,+212 5393-41127,I bgha it 3 assab iji l had age,CIH Bank,Tanger,"Bd Ibntachfine, Rue Jamal Eddine Al Afghani, Tanger 90060, Maroc",3,1.9
87,+212 5393-41127,"Traitement animalier par l'employ√© de banque et le gardien, mauvais service et discrimination entre clients",CIH Bank,Tanger,"Bd Ibntachfine, Rue Jamal Eddine Al Afghani, Tanger 90060, Maroc",1,1.9
88,+212 5393-41127,"Perdre le temps des gens, pas de travail, pas de jeu",CIH Bank,Tanger,"Bd Ibntachfine, Rue Jamal Eddine Al Afghani, Tanger 90060, Maroc",1,1.9
89,+212 5393-41127,"Vraiment pas aux normes, honteux et honteux d'avoir une agence bancaire de ce niveau dans une grande ville et un p√¥le √©conomique comme Tanger ? Comment est-il possible qu'un client, apr√®s avoir attendu 30 minutes, qui veut d√©poser son argent sur son compte personnel et en sa pr√©sence avec sa carte nationale, soit refus√©, au motif qu'il a d√ª passer par le guichet automatique pour d√©poser de l'argent et que la box est exclusivement pour les grosses sommes d'argent ??? Sachant que le client n'a pas sur lui la carte bancaire qui l'autorise
Faire exclusivement ce processus √† cette fen√™tre automatis√©e¬†?
Il est √©galement tr√®s √©trange que le caissier vous oblige √† effectuer un processus que nous ne pouvons pas faire, sachant que la banque alloue un groupe de services qui concernent les retraits et les d√©p√¥ts, parmi lesquels le client choisit ce qui lui convient !!!! Et l√©galement, aucun service ne devrait √™tre impos√© qu'un client ne veut pas ou ne peut pas fournir pour quelque raison que ce soit.
En effet, il est honteux de trouver un employ√© dans une agence bancaire qui manque de professionnalisme, de tact, et de respect des clients, et prononce des propos pour le moins qu'on puisse dire √† son sujet qui sont des propos vulgaires et qui ne sont pas √† la hauteur du niveau de service. Si vous ne venez pas, nous retournerons √† la banque, vous vous reposerez et nous nous reposerons jusqu'√† ce que nous soyons avec vous.",CIH Bank,Tanger,"Bd Ibntachfine, Rue Jamal Eddine Al Afghani, Tanger 90060, Maroc",1,1.9
90,+212 5393-41127,"J'ai enfin pu cr√©er un compte apr√®s trois jours o√π le syst√®me √©tait corrompu, le temps et l'argent du transport m'ont co√ªt√© environ 50 dh",CIH Bank,Tanger,"Bd Ibntachfine, Rue Jamal Eddine Al Afghani, Tanger 90060, Maroc",1,1.9
91,+212 5393-41127,"tr√®s mauvaise exp√©rience, 0/5",CIH Bank,Tanger,"Bd Ibntachfine, Rue Jamal Eddine Al Afghani, Tanger 90060, Maroc",1,1.9
92,+212 5393-41127,C'est bon,CIH Bank,Tanger,"Bd Ibntachfine, Rue Jamal Eddine Al Afghani, Tanger 90060, Maroc",4,1.9
93,+212 5393-41127,J'ai eu une mauvaise exp√©rience avec l'agence cih √† Tanger mly Ismail. Le r√©ceptionniste se comporte le moins bien avec tous les clients. Et cela affecte la valeur de cih bank. Pour √™tre honn√™te . Je n'ai recommand√© √† personne d'y aller.,CIH Bank,Tanger,"Bd Ibntachfine, Rue Jamal Eddine Al Afghani, Tanger 90060, Maroc",2,1.9
94,+212 5393-41127,Mauvais service mna9s,CIH Bank,Tanger,"Bd Ibntachfine, Rue Jamal Eddine Al Afghani, Tanger 90060, Maroc",1,1.9
95,+212 5393-41127,Mauvais service ,CIH Bank,Tanger,"Bd Ibntachfine, Rue Jamal Eddine Al Afghani, Tanger 90060, Maroc",1,1.9
96,+212 5393-41127,Prendre longtemps besoin de plus d'agents l√†-bas,CIH Bank,Tanger,"Bd Ibntachfine, Rue Jamal Eddine Al Afghani, Tanger 90060, Maroc",2,1.9
97,+212 5393-41127,"Tr√®s mauvais service, personne ne respecte le temps des clients, et il n'y a pas de r√©ponses claires.",CIH Bank,Tanger,"Bd Ibntachfine, Rue Jamal Eddine Al Afghani, Tanger 90060, Maroc",1,1.9
98,+212 5393-41127,CIH Bank sur l'avenue Youssef Ibn Tachfine √† Tanger est l'une des grandes banques du Maroc. Cet emplacement n'est pas loin de la Place des Nations et √† une courte distance du centre commercial Ibn Batoutta.,CIH Bank,Tanger,"Bd Ibntachfine, Rue Jamal Eddine Al Afghani, Tanger 90060, Maroc",5,1.9
99,+212 5393-41127,Bon produit,CIH Bank,Tanger,"Bd Ibntachfine, Rue Jamal Eddine Al Afghani, Tanger 90060, Maroc",4,1.9
100,+212 5224-79479,Mauvais service et traitement provocateur,CIH Bank,Tanger,"P6V2+9FP, Rue Beyrouth, Tanger 90060, Maroc",1,2.3
101,+212 5224-79479,La pire banque de tous les temps,CIH Bank,Tanger,"P6V2+9FP, Rue Beyrouth, Tanger 90060, Maroc",1,2.3
102,+212 5224-79479,La pire branche cih avec tous les avantages,CIH Bank,Tanger,"P6V2+9FP, Rue Beyrouth, Tanger 90060, Maroc",1,2.3
103,+212 5224-79479,Ils doivent am√©liorer le service,CIH Bank,Tanger,"P6V2+9FP, Rue Beyrouth, Tanger 90060, Maroc",3,2.3
104,+212 5224-79479,"Le service est totalement non professionnel, la pire banque que j'aie jamais vue",CIH Bank,Tanger,"P6V2+9FP, Rue Beyrouth, Tanger 90060, Maroc",1,2.3
105,+212 5224-79479,"J'ai soumis une demande en ligne pour ouvrir un compte et maintenant c'est la troisi√®me fois que j'essaie de joindre l'employ√© responsable de cela et chaque fois que je viens ici, ils me font attendre jusqu'√† ce que je sois frustr√© et que je revienne sur mon chemin.",CIH Bank,Tanger,"P6V2+9FP, Rue Beyrouth, Tanger 90060, Maroc",1,2.3
106,+212 5224-79479,L'agence la plus ch√®re √† traiter,CIH Bank,Tanger,"P6V2+9FP, Rue Beyrouth, Tanger 90060, Maroc",5,2.3
107,+212 5224-79479,"L'agence la plus ch√®re avec laquelle j'ai travaill√© de ma vie, deux serviteurs, dans certains cas, interrompant Zukshi Diyal : ¬´ Marchez jusqu'√† ce que vous veniez‚Ä¶ ¬ª ¬´ Non, le monsieur qui est en charge d'une r√©union‚Ä¶ ¬ª ¬´ Il vaut mieux venez le matin de ce service plut√¥t que pendant la journ√©e‚Ä¶ ¬ª sauf que cela leur suffit.",CIH Bank,Tanger,"P6V2+9FP, Rue Beyrouth, Tanger 90060, Maroc",4,2.3
108,+212 5224-79479,"Il semble qu'ils ouvrent √† neuf heures et non √† 8 h 15. Les clients attendent et certains partent par manque de temps pendant qu'ils sont
Ils sont sans voix",CIH Bank,Tanger,"P6V2+9FP, Rue Beyrouth, Tanger 90060, Maroc",2,2.3
109,+212 5224-79479,"Je lui donne une demi-√©toile ou moins, deux employ√©s d√©lirants pour leur travail, et le citoyen attend",CIH Bank,Tanger,"P6V2+9FP, Rue Beyrouth, Tanger 90060, Maroc",4,2.3
110,+212 5224-79479,C'est bon,CIH Bank,Tanger,"P6V2+9FP, Rue Beyrouth, Tanger 90060, Maroc",4,2.3
111,+212 5224-79479,D'accord,CIH Bank,Tanger,"P6V2+9FP, Rue Beyrouth, Tanger 90060, Maroc",4,2.3
112,+212 5393-59020,Tr√®s mauvais service,CIH Bank,Tanger,"N2 Quart. Ibn Batota Route .Tetouan, Mghogha 11, Tanger 90060, Maroc",1,2.4
113,+212 5393-59020,La pire banque de Tanger,CIH Bank,Tanger,"N2 Quart. Ibn Batota Route .Tetouan, Mghogha 11, Tanger 90060, Maroc",1,2.4
114,+212 5393-59020,La banque de demain est avec vous aujourd'hui,CIH Bank,Tanger,"N2 Quart. Ibn Batota Route .Tetouan, Mghogha 11, Tanger 90060, Maroc",5,2.4
115,+212 5393-59020,"mauvais service
√† chaque fois
tous les jours",CIH Bank,Tanger,"N2 Quart. Ibn Batota Route .Tetouan, Mghogha 11, Tanger 90060, Maroc",1,2.4
116,+212 5393-59020,Service client d√©sastreux,CIH Bank,Tanger,"N2 Quart. Ibn Batota Route .Tetouan, Mghogha 11, Tanger 90060, Maroc",1,2.4
117,+212 5393-59020,Les d√©lais d'attente sont tr√®s longs,CIH Bank,Tanger,"N2 Quart. Ibn Batota Route .Tetouan, Mghogha 11, Tanger 90060, Maroc",2,2.4
118,+212 5393-59020,excellent,CIH Bank,Tanger,"N2 Quart. Ibn Batota Route .Tetouan, Mghogha 11, Tanger 90060, Maroc",5,2.4
119,+212 5393-59020,Assistance : 0/10 Satisfaction client : pas compl√®te,CIH Bank,Tanger,"N2 Quart. Ibn Batota Route .Tetouan, Mghogha 11, Tanger 90060, Maroc",1,2.4
120,+212 5393-59020,"en fait tout le monde est gentil et serviable, ils ont aussi le wifi gratuit",CIH Bank,Tanger,"N2 Quart. Ibn Batota Route .Tetouan, Mghogha 11, Tanger 90060, Maroc",5,2.4
121,+212 5393-59020,Merci,CIH Bank,Tanger,"N2 Quart. Ibn Batota Route .Tetouan, Mghogha 11, Tanger 90060, Maroc",5,2.4
122,+212 5393-59020,"0 √©toile, tr√®s mauvais service",CIH Bank,Tanger,"N2 Quart. Ibn Batota Route .Tetouan, Mghogha 11, Tanger 90060, Maroc",1,2.4
123,+212 5393-59020,Une tr√®s belle et merveilleuse banque dans le niveau et il y a un grand soutien,CIH Bank,Tanger,"N2 Quart. Ibn Batota Route .Tetouan, Mghogha 11, Tanger 90060, Maroc",5,2.4
124,+212 5393-59020,La banque immobili√®re et touristique,CIH Bank,Tanger,"N2 Quart. Ibn Batota Route .Tetouan, Mghogha 11, Tanger 90060, Maroc",5,2.4
125,+212 5393-59020,Une banque mondiale avec un beau cahier des charges que j'aime,CIH Bank,Tanger,"N2 Quart. Ibn Batota Route .Tetouan, Mghogha 11, Tanger 90060, Maroc",5,2.4
126,+212 5393-59351,"La pire banque o√π vous pouvez aller Traitement inappropri√© des gens, ils traitent les gens comme s'ils √©taient une marchandise inf√©rieure",CIH Bank,Tanger,"Av. Tariq Ibn Ziad Benimakada, Drissia, Tanger 90060, Maroc",1,1.8
127,+212 5393-59351,"Service lent
Une employ√©e
La fen√™tre automatique est toujours d√©sactiv√©e
Echanges bancaires et techniques
",CIH Bank,Tanger,"Av. Tariq Ibn Ziad Benimakada, Drissia, Tanger 90060, Maroc",1,1.8
128,+212 5393-59351,z√©ro,CIH Bank,Tanger,"Av. Tariq Ibn Ziad Benimakada, Drissia, Tanger 90060, Maroc",1,1.8
129,+212 5393-59351,"Pour proposer des choses simples, il faut partir toute une semaine tous les matins √† 8 et voir ce que l'on voit",CIH Bank,Tanger,"Av. Tariq Ibn Ziad Benimakada, Drissia, Tanger 90060, Maroc",3,1.8
130,+212 5393-59351,"Tr√®s mauvaise agence, tr√®s mauvais traitement et communication avec les clients, manque de respect des employ√©s √† commencer par l'agent de s√©curit√© jusqu'au directeur d'agence. Aussi le temps de travail, l'agence ouvre √† 09h00 et les employ√©s viennent jusqu'√† 10h00 ou plus tard parfois. Et d'autres fois, ils pourraient vous dire que le syst√®me est en panne. Je ne recommande √† personne de faire affaire avec cette agence. Merci",CIH Bank,Tanger,"Av. Tariq Ibn Ziad Benimakada, Drissia, Tanger 90060, Maroc",1,1.8
131,+212 5393-59351,"Men akheyab agency chufte fe hyati la men nahia de ta3amul wala service une des pires agences qui existent, je regrette tous les jours d'avoir ouvert le compte chez eux, j'esp√®re changer de compte bancaire maintenant et √™tre avec une banque comp√©tente et √ßa au moins Fais ton travail",CIH Bank,Tanger,"Av. Tariq Ibn Ziad Benimakada, Drissia, Tanger 90060, Maroc",1,1.8
132,+212 5393-59351,"Je pense que c'est la pire agence CIH au Maroc, le directeur √©tait tr√®s grossier et arrogant, il n'a r√©pondu √† aucune de mes questions. Il ne conna√Æt m√™me pas les proc√©dures de la banque avec laquelle il travaille !! Le personnel de s√©curit√© √©tait cependant un gars sympa.",CIH Bank,Tanger,"Av. Tariq Ibn Ziad Benimakada, Drissia, Tanger 90060, Maroc",1,1.8
133,+212 5393-59351,tr√®s mauvais service malheureusement,CIH Bank,Tanger,"Av. Tariq Ibn Ziad Benimakada, Drissia, Tanger 90060, Maroc",1,1.8
134,+212 5393-59351,"Mauvais service et employ√©s paresseux, je ne le recommande pas du tout ",CIH Bank,Tanger,"Av. Tariq Ibn Ziad Benimakada, Drissia, Tanger 90060, Maroc",1,1.8
135,+212 5393-59351,Mauvais service,CIH Bank,Tanger,"Av. Tariq Ibn Ziad Benimakada, Drissia, Tanger 90060, Maroc",1,1.8
136,+212 5393-59351,"Mauvais service, surtout un des employ√©s qui s'appelle Moaz, qui n'est pas qualifi√©, et mauvais contact avec les clients.Je ne conseille √† personne de faire affaire avec cette agence",CIH Bank,Tanger,"Av. Tariq Ibn Ziad Benimakada, Drissia, Tanger 90060, Maroc",1,1.8
137,+212 5393-59351,tr√®s mauvais service client m√©diocre,CIH Bank,Tanger,"Av. Tariq Ibn Ziad Benimakada, Drissia, Tanger 90060, Maroc",1,1.8
138,+212 5393-59351,"Mauvais service et personnel non qualifi√© pour servir les clients
Quatre personnes en attente et plus de deux heures. Je d√©conseille aux clients d'y aller",CIH Bank,Tanger,"Av. Tariq Ibn Ziad Benimakada, Drissia, Tanger 90060, Maroc",1,1.8
139,+212 5393-59351,Les services sont tr√®s mauvais,CIH Bank,Tanger,"Av. Tariq Ibn Ziad Benimakada, Drissia, Tanger 90060, Maroc",1,1.8
140,+212 5393-59351,Merci pour votre aide c'√©tait si important pour moi merci encore,CIH Bank,Tanger,"Av. Tariq Ibn Ziad Benimakada, Drissia, Tanger 90060, Maroc",5,1.8
